{
  "type": "FeatureCollection",
  "features": [
    {
      "type": "Feature",
      "properties": {
        "norad_id": 35208,
        "name": "FENGYUN 1C DEB",
        "group": "fengyun-1c-debris",
        "lat": 27.205695800827513,
        "lon": 8.971893934900294,
        "alt_km": 914.8097114756401,
        "timestamp": "2025-12-20T14:38:02.257556+00:00",
        "meta_object_name": "FENGYUN 1C DEB",
        "meta_object_id": "1999-025DPQ",
        "meta_epoch": "2025-12-12T19:29:45.564288",
        "meta_mean_motion": 13.99657071,
        "meta_eccentricity": 0.01013151,
        "meta_inclination": 98.903,
        "meta_ra_of_asc_node": 6.0094,
        "meta_arg_of_pericenter": 156.4473,
        "meta_mean_anomaly": 204.1379,
        "meta_ephemeris_type": 0,
        "meta_classification_type": "U",
        "meta_norad_cat_id": 35208,
        "meta_element_set_no": 999,
        "meta_rev_at_epoch": 90564,
        "meta_bstar": 0.0013122763,
        "meta_mean_motion_dot": 1.963e-05,
        "meta_mean_motion_ddot": 0,
        "tle_line1": "1 35208U 99025DPQ 25346.81233292  .00001963  00000+0  13123-2 0  9993",
        "tle_line2": "2 35208  98.9030   6.0094 0101315 156.4473 204.1379 13.99657071905647"
      },
      "geometry": {
        "type": "Point",
        "coordinates": [
          8.971893934900294,
          27.205695800827513
        ]
      }
    },
    {
      "type": "Feature",
      "properties": {
        "norad_id": 35210,
        "name": "FENGYUN 1C DEB",
        "group": "fengyun-1c-debris",
        "lat": -30.01676898627798,
        "lon": 173.4960137683844,
        "alt_km": 750.0013927987129,
        "timestamp": "2025-12-20T14:38:02.257566+00:00",
        "meta_object_name": "FENGYUN 1C DEB",
        "meta_object_id": "1999-025DPS",
        "meta_epoch": "2025-12-18T12:06:50.330880",
        "meta_mean_motion": 14.33704847,
        "meta_eccentricity": 0.00494065,
        "meta_inclination": 99.0985,
        "meta_ra_of_asc_node": 356.596,
        "meta_arg_of_pericenter": 222.166,
        "meta_mean_anomaly": 289.65,
        "meta_ephemeris_type": 0,
        "meta_classification_type": "U",
        "meta_norad_cat_id": 35210,
        "meta_element_set_no": 999,
        "meta_rev_at_epoch": 90205,
        "meta_bstar": 0.0020107136,
        "meta_mean_motion_dot": 5.613e-05,
        "meta_mean_motion_ddot": 0,
        "tle_line1": "1 35210U 99025DPS 25352.50474920  .00005613  00000+0  20107-2 0  9990",
        "tle_line2": "2 35210  99.0985 356.5960 0049406 222.1660 289.6500 14.33704847902056"
      },
      "geometry": {
        "type": "Point",
        "coordinates": [
          173.4960137683844,
          -30.01676898627798
        ]
      }
    },
    {
      "type": "Feature",
      "properties": {
        "norad_id": 35217,
        "name": "FENGYUN 1C DEB",
        "group": "fengyun-1c-debris",
        "lat": 77.84190483317748,
        "lon": -166.2059731876539,
        "alt_km": 1257.3378951702643,
        "timestamp": "2025-12-20T14:38:02.257577+00:00",
        "meta_object_name": "FENGYUN 1C DEB",
        "meta_object_id": "1999-025DPZ",
        "meta_epoch": "2025-12-16T00:31:46.822080",
        "meta_mean_motion": 13.57523725,
        "meta_eccentricity": 0.03020457,
        "meta_inclination": 101.8758,
        "meta_ra_of_asc_node": 265.8616,
        "meta_arg_of_pericenter": 288.6471,
        "meta_mean_anomaly": 68.209,
        "meta_ephemeris_type": 0,
        "meta_classification_type": "U",
        "meta_norad_cat_id": 35217,
        "meta_element_set_no": 999,
        "meta_rev_at_epoch": 61264,
        "meta_bstar": 0.0019543408,
        "meta_mean_motion_dot": 1.822e-05,
        "meta_mean_motion_ddot": 0,
        "tle_line1": "1 35217U 99025DPZ 25350.02206970  .00001822  00000+0  19543-2 0  9990",
        "tle_line2": "2 35217 101.8758 265.8616 0302045 288.6471  68.2090 13.57523725612648"
      },
      "geometry": {
        "type": "Point",
        "coordinates": [
          -166.2059731876539,
          77.84190483317748
        ]
      }
    },
    {
      "type": "Feature",
      "properties": {
        "norad_id": 35220,
        "name": "FENGYUN 1C DEB",
        "group": "fengyun-1c-debris",
        "lat": -54.769673326217976,
        "lon": 77.84908954332478,
        "alt_km": 794.0999513878196,
        "timestamp": "2025-12-20T14:38:02.257587+00:00",
        "meta_object_name": "FENGYUN 1C DEB",
        "meta_object_id": "1999-025DQC",
        "meta_epoch": "2025-12-17T15:59:55.105728",
        "meta_mean_motion": 14.22592143,
        "meta_eccentricity": 0.00434644,
        "meta_inclination": 99.0288,
        "meta_ra_of_asc_node": 61.8233,
        "meta_arg_of_pericenter": 292.8238,
        "meta_mean_anomaly": 66.8352,
        "meta_ephemeris_type": 0,
        "meta_classification_type": "U",
        "meta_norad_cat_id": 35220,
        "meta_element_set_no": 999,
        "meta_rev_at_epoch": 63253,
        "meta_bstar": 0.0012376652,
        "meta_mean_motion_dot": 2.746e-05,
        "meta_mean_motion_ddot": 0,
        "tle_line1": "1 35220U 99025DQC 25351.66661002  .00002746  00000+0  12377-2 0  9990",
        "tle_line2": "2 35220  99.0288  61.8233 0043464 292.8238  66.8352 14.22592143632530"
      },
      "geometry": {
        "type": "Point",
        "coordinates": [
          77.84908954332478,
          -54.769673326217976
        ]
      }
    },
    {
      "type": "Feature",
      "properties": {
        "norad_id": 35223,
        "name": "FENGYUN 1C DEB",
        "group": "fengyun-1c-debris",
        "lat": -27.834009921371432,
        "lon": -17.074644842838953,
        "alt_km": 529.4446299569681,
        "timestamp": "2025-12-20T14:38:02.257597+00:00",
        "meta_object_name": "FENGYUN 1C DEB",
        "meta_object_id": "1999-025DQF",
        "meta_epoch": "2025-12-15T21:52:13.271808",
        "meta_mean_motion": 14.89040296,
        "meta_eccentricity": 0.01278562,
        "meta_inclination": 98.9714,
        "meta_ra_of_asc_node": 332.82,
        "meta_arg_of_pericenter": 316.3242,
        "meta_mean_anomaly": 42.7908,
        "meta_ephemeris_type": 0,
        "meta_classification_type": "U",
        "meta_norad_cat_id": 35223,
        "meta_element_set_no": 999,
        "meta_rev_at_epoch": 93929,
        "meta_bstar": 0.0007126832,
        "meta_mean_motion_dot": 7.747e-05,
        "meta_mean_motion_ddot": 0,
        "tle_line1": "1 35223U 99025DQF 25349.91126472  .00007747  00000+0  71268-3 0  9996",
        "tle_line2": "2 35223  98.9714 332.8200 0127856 316.3242  42.7908 14.89040296939298"
      },
      "geometry": {
        "type": "Point",
        "coordinates": [
          -17.074644842838953,
          -27.834009921371432
        ]
      }
    },
    {
      "type": "Feature",
      "properties": {
        "norad_id": 35229,
        "name": "FENGYUN 1C DEB",
        "group": "fengyun-1c-debris",
        "lat": 5.707275411953085,
        "lon": 72.91847358081388,
        "alt_km": 724.919192655475,
        "timestamp": "2025-12-20T14:38:02.257607+00:00",
        "meta_object_name": "FENGYUN 1C DEB",
        "meta_object_id": "1999-025DQM",
        "meta_epoch": "2025-12-15T11:19:27.070176",
        "meta_mean_motion": 14.60835555,
        "meta_eccentricity": 0.00466086,
        "meta_inclination": 98.4587,
        "meta_ra_of_asc_node": 68.5229,
        "meta_arg_of_pericenter": 206.4488,
        "meta_mean_anomaly": 153.4333,
        "meta_ephemeris_type": 0,
        "meta_classification_type": "U",
        "meta_norad_cat_id": 35229,
        "meta_element_set_no": 999,
        "meta_rev_at_epoch": 64546,
        "meta_bstar": 0.0033787408,
        "meta_mean_motion_dot": 0.00016753,
        "meta_mean_motion_ddot": 0,
        "tle_line1": "1 35229U 99025DQM 25349.47184109  .00016753  00000+0  33787-2 0  9994",
        "tle_line2": "2 35229  98.4587  68.5229 0046608 206.4488 153.4333 14.60835555645461"
      },
      "geometry": {
        "type": "Point",
        "coordinates": [
          72.91847358081388,
          5.707275411953085
        ]
      }
    },
    {
      "type": "Feature",
      "properties": {
        "norad_id": 35231,
        "name": "FENGYUN 1C DEB",
        "group": "fengyun-1c-debris",
        "lat": 74.2784324823542,
        "lon": -109.37390179196454,
        "alt_km": 815.7364741453457,
        "timestamp": "2025-12-20T14:38:02.257617+00:00",
        "meta_object_name": "FENGYUN 1C DEB",
        "meta_object_id": "1999-025DQP",
        "meta_epoch": "2025-12-20T02:16:05.023776",
        "meta_mean_motion": 14.14529124,
        "meta_eccentricity": 0.00379148,
        "meta_inclination": 98.7195,
        "meta_ra_of_asc_node": 37.0855,
        "meta_arg_of_pericenter": 64.705,
        "meta_mean_anomaly": 295.8044,
        "meta_ephemeris_type": 0,
        "meta_classification_type": "U",
        "meta_norad_cat_id": 35231,
        "meta_element_set_no": 999,
        "meta_rev_at_epoch": 91606,
        "meta_bstar": 2.8184415e-05,
        "meta_mean_motion_dot": 1.2e-07,
        "meta_mean_motion_ddot": 0,
        "tle_line1": "1 35231U 99025DQP 25354.09450259  .00000012  00000+0  28184-4 0  9991",
        "tle_line2": "2 35231  98.7195  37.0855 0037914  64.7050 295.8044 14.14529124916066"
      },
      "geometry": {
        "type": "Point",
        "coordinates": [
          -109.37390179196454,
          74.2784324823542
        ]
      }
    }
  ]
}